OBJECT_NAME,OBJECT_ID,EPOCH,MEAN_MOTION,ECCENTRICITY,INCLINATION,RA_OF_ASC_NODE,ARG_OF_PERICENTER,MEAN_ANOMALY,EPHEMERIS_TYPE,CLASSIFICATION_TYPE,NORAD_CAT_ID,ELEMENT_SET_NO,REV_AT_EPOCH,BSTAR,MEAN_MOTION_DOT,MEAN_MOTION_DDOT
NIGHTJAR,2024-149BV,2026-06-05T02:38:12.388704,14.98962032,.00025985,97.6867,232.9842,93.2170,266.9350,0,U,60535,999,14106,.32100641E-3,.3827E-4,0
LEMUR-2-MARHISYAM,2024-149BW,2026-06-04T17:53:43.960416,15.10994084,.00030866,97.6879,238.5856,140.1867,219.9590,0,U,60536,999,9860,.74142346E-3,.12328E-3,0
SATELIOT_4,2024-149BX,2026-06-04T19:15:13.177440,14.96619754,.00032588,97.6727,230.5205,85.8515,274.3079,0,U,60537,999,9812,.20848369E-3,.2319E-4,0
PICO-02A021,2024-149BY,2026-06-04T04:27:38.203776,15.03114116,.00059706,97.6728,234.1328,67.2781,292.9075,0,U,60538,999,9778,.41141494E-3,.5494E-4,0
ICEYE-X43,2024-149BZ,2026-06-04T16:25:25.768992,14.99901035,.000736,97.6758,232.8227,121.8704,238.3236,0,U,60539,999,9824,.38237E-3,.4687E-4,0
HAWK-10A,2024-149CA,2026-06-04T19:11:34.391040,14.96470866,.00045786,97.6885,231.9242,108.2599,251.9121,0,U,60540,999,9813,.16443198E-3,.1809E-4,0
UMBRA-09,2024-149CB,2026-06-04T16:10:09.100416,15.17588114,.0001066,97.6938,242.6649,319.5587,40.5566,0,U,60541,999,9882,.72885E-3,.14594E-3,0
QPS-SAR-8 (AMATERU-IV),2024-149CC,2026-06-04T16:28:30.995040,15.04010002,.0004472,97.6670,234.9422,136.4748,223.6831,0,U,60542,999,9839,.4815E-3,.6597E-4,0
ARCTIC WEATHER SATELLITE,2024-149CD,2026-06-04T17:28:40.051776,14.89810216,.0003287,97.6802,226.5495,128.0586,232.0929,0,U,60543,999,9744,.11548E-3,.1055E-4,0
CAPELLA-15 (ACADIA-5),2024-149CE,2026-06-04T17:13:18.499872,14.92412120,.00052617,97.6773,228.9328,115.3915,244.7850,0,U,60544,999,9799,.73821221E-3,.7512E-4,0
HAWK-10B,2024-149CF,2026-06-04T19:11:21.352416,14.96471855,.0006312,97.6805,231.2918,127.2264,232.9535,0,U,60545,999,9813,.17015547E-3,.1875E-4,0
ICEYE-X39,2024-149CG,2026-06-04T19:14:08.211552,14.99818979,.00039956,97.6764,232.9949,149.8689,210.2765,0,U,60546,999,9826,.28272502E-3,.3441E-4,0
UMBRA-10,2024-149CH,2026-06-04T22:29:14.769600,15.17656753,.0001314,97.6971,242.9633,72.0682,288.0694,0,U,60547,999,9887,.93406E-3,.1877E-3,0
ICEYE-X33,2024-149CJ,2026-06-03T07:15:03.638880,15.00904331,.00010723,97.7229,233.5224,126.2639,233.8684,0,U,60548,999,9812,.3441655E-3,.4323E-4,0
ICEYE-X40,2024-149CK,2026-06-04T17:51:21.040128,14.97896652,.0005896,97.6800,232.4400,117.1624,243.0200,0,U,60549,999,9821,.14496E-3,.1649E-4,0
SATELIOT_1,2024-149CL,2026-06-04T19:16:19.385760,14.98012595,.00075201,97.6738,231.9078,114.7398,245.4608,0,U,60550,999,9821,.22041358E-3,.2546E-4,0
BRO-14,2024-149CM,2026-06-05T00:33:35.213472,14.96149219,.00080161,97.6875,232.0194,130.4111,229.7811,0,U,60551,999,9817,.13980071E-3,.1517E-4,0
SATELIOT_3,2024-149CN,2026-06-04T21:53:43.304928,14.98012465,.00065733,97.6833,232.7950,114.5705,245.6203,0,U,60552,999,9824,.17956325E-3,.2063E-4,0
BRO-15,2024-149CP,2026-06-04T17:42:44.128800,14.96103774,.0009244,97.6801,231.3525,124.6954,235.5139,0,U,60553,999,9814,.90072E-4,.956E-5,0
UM5-RIBAT,2024-149CQ,2026-06-04T19:21:10.730016,15.01003939,.0003921,97.6639,233.7738,81.1760,278.9908,0,U,60554,999,9833,.29437E-3,.3699E-4,0
UM5-EOSAT,2024-149CR,2026-06-04T17:02:01.063392,15.01429857,.00084211,97.6671,234.5971,151.5551,208.6134,0,U,60555,999,9834,.36268274E-3,.4626E-4,0
LASARSAT,2024-247Q,2026-06-03T22:10:16.072896,15.45494859,.00080478,44.9754,336.7002,258.6055,101.3931,0,U,62391,999,8126,.75515127E-3,.36882E-3,0
CROCUBE,2024-247T,2026-06-04T18:38:20.569344,15.47331526,.0007951,44.9728,329.4431,266.3385,93.6596,0,U,62394,999,8142,.74814E-3,.38955E-3,0
TEVEL2-4,2025-052D,2026-06-04T15:51:50.035392,15.34152369,.00042884,97.3926,52.0362,127.7510,232.4122,0,U,63213,999,6819,.65897715E-3,.21744E-3,0
TEVEL2-5,2025-052E,2026-06-05T06:24:45.804384,15.34006552,.00041287,97.3910,52.5934,127.0520,233.1101,0,U,63214,999,6828,.51277606E-3,.16814E-3,0
TEVEL2-6,2025-052F,2026-06-04T16:36:41.612256,15.33948162,.0004351,97.3914,52.0022,129.5253,230.6375,0,U,63215,999,6819,.61616E-3,.20192E-3,0
TEVEL2-1,2025-052H,2026-06-04T15:38:22.630848,15.33430587,.00039028,97.3886,51.6013,137.4262,222.7283,0,U,63217,999,6817,.62394043E-3,.20115E-3,0
TEVEL2-3,2025-052J,2026-06-04T15:31:17.786496,15.33483588,.00039786,97.3888,51.6166,138.3190,221.8356,0,U,63218,999,6817,.62480469E-3,.20177E-3,0
TEVEL2-2,2025-052K,2026-06-04T15:38:55.495680,15.33439815,.00039362,97.3887,51.6034,139.0495,221.1044,0,U,63219,999,6817,.63617993E-3,.20518E-3,0
TEVEL2-9,2025-052AD,2026-06-05T06:24:09.371232,15.31514886,.00066504,97.3943,51.6191,165.5205,194.6228,0,U,63237,999,6820,.50636334E-3,.15357E-3,0
