NIGHTJAR                
1 60535U 24149BV  26156.10986561  .00003827  00000+0  32101-3 0  9994
2 60535  97.6867 232.9842 0002598  93.2170 266.9350 14.98962032141067
LEMUR-2-MARHISYAM       
1 60536U 24149BW  26155.74564769  .00012328  00000+0  74142-3 0  9993
2 60536  97.6879 238.5856 0003086 140.1867 219.9590 15.10994084 98608
SATELIOT_4              
1 60537U 24149BX  26155.80223585  .00002319  00000+0  20848-3 0  9992
2 60537  97.6727 230.5205 0003258  85.8515 274.3079 14.96619754 98122
PICO-02A021             
1 60538U 24149BY  26155.18585884  .00005494  00000+0  41141-3 0  9993
2 60538  97.6728 234.1328 0005970  67.2781 292.9075 15.03114116 97786
ICEYE-X43               
1 60539U 24149BZ  26155.68432603  .00004687  00000+0  38237-3 0  9994
2 60539  97.6758 232.8227 0007360 121.8704 238.3236 14.99901035 98243
HAWK-10A                
1 60540U 24149CA  26155.79970360  .00001809  00000+0  16443-3 0  9993
2 60540  97.6885 231.9242 0004578 108.2599 251.9121 14.96470866 98134
UMBRA-09                
1 60541U 24149CB  26155.67371644  .00014594  00000+0  72885-3 0  9998
2 60541  97.6938 242.6649 0001066 319.5587  40.5566 15.17588114 98828
QPS-SAR-8 (AMATERU-IV)  
1 60542U 24149CC  26155.68646985  .00006597  00000+0  48150-3 0  9995
2 60542  97.6670 234.9422 0004472 136.4748 223.6831 15.04010002 98397
ARCTIC WEATHER SATELLITE
1 60543U 24149CD  26155.72824134  .00001055  00000+0  11548-3 0  9990
2 60543  97.6802 226.5495 0003287 128.0586 232.0929 14.89810216 97446
CAPELLA-15 (ACADIA-5)   
1 60544U 24149CE  26155.71757523  .00007512  00000+0  73821-3 0  9993
2 60544  97.6773 228.9328 0005261 115.3915 244.7850 14.92412120 97993
HAWK-10B                
1 60545U 24149CF  26155.79955269  .00001875  00000+0  17016-3 0  9999
2 60545  97.6805 231.2918 0006312 127.2264 232.9535 14.96471855 98139
ICEYE-X39               
1 60546U 24149CG  26155.80148393  .00003441  00000+0  28273-3 0  9992
2 60546  97.6764 232.9949 0003995 149.8689 210.2765 14.99818979 98264
UMBRA-10                
1 60547U 24149CH  26155.93697650  .00018770  00000+0  93406-3 0  9993
2 60547  97.6971 242.9633 0001314  72.0682 288.0694 15.17656753 98871
ICEYE-X33               
1 60548U 24149CJ  26154.30212545  .00004323  00000+0  34417-3 0  9996
2 60548  97.7229 233.5224 0001072 126.2639 233.8684 15.00904331 98121
ICEYE-X40               
1 60549U 24149CK  26155.74399352  .00001649  00000+0  14496-3 0  9991
2 60549  97.6800 232.4400 0005896 117.1624 243.0200 14.97896652 98219
SATELIOT_1              
1 60550U 24149CL  26155.80300215  .00002546  00000+0  22041-3 0  9992
2 60550  97.6738 231.9078 0007520 114.7398 245.4608 14.98012595 98218
BRO-14                  
1 60551U 24149CM  26156.02332423  .00001517  00000+0  13980-3 0  9993
2 60551  97.6875 232.0194 0008016 130.4111 229.7811 14.96149219 98179
SATELIOT_3              
1 60552U 24149CN  26155.91230677  .00002063  00000+0  17956-3 0  9993
2 60552  97.6833 232.7950 0006573 114.5705 245.6203 14.98012465 98243
BRO-15                  
1 60553U 24149CP  26155.73801075  .00000956  00000+0  90072-4 0  9990
2 60553  97.6801 231.3525 0009244 124.6954 235.5139 14.96103774 98145
UM5-RIBAT               
1 60554U 24149CQ  26155.80637419  .00003699  00000+0  29437-3 0  9991
2 60554  97.6639 233.7738 0003921  81.1760 278.9908 15.01003939 98330
UM5-EOSAT               
1 60555U 24149CR  26155.70973453  .00004626  00000+0  36268-3 0  9993
2 60555  97.6671 234.5971 0008421 151.5551 208.6134 15.01429857 98348
LASARSAT                
1 62391U 24247Q   26154.92379714  .00036882  00000+0  75515-3 0  9992
2 62391  44.9754 336.7002 0008047 258.6055 101.3931 15.45494859 81266
CROCUBE                 
1 62394U 24247T   26155.77662696  .00038955  00000+0  74814-3 0  9997
2 62394  44.9728 329.4431 0007951 266.3385  93.6596 15.47331526 81421
TEVEL2-4                
1 63213U 25052D   26155.66099578  .00021744  00000+0  65898-3 0  9994
2 63213  97.3926  52.0362 0004288 127.7510 232.4122 15.34152369 68195
TEVEL2-5                
1 63214U 25052E   26156.26719681  .00016814  00000+0  51278-3 0  9995
2 63214  97.3910  52.5934 0004128 127.0520 233.1101 15.34006552 68283
TEVEL2-6                
1 63215U 25052F   26155.69214829  .00020192  00000+0  61616-3 0  9997
2 63215  97.3914  52.0022 0004351 129.5253 230.6375 15.33948162 68195
TEVEL2-1                
1 63217U 25052H   26155.65165082  .00020115  00000+0  62394-3 0  9990
2 63217  97.3886  51.6013 0003902 137.4262 222.7283 15.33430587 68174
TEVEL2-3                
1 63218U 25052J   26155.64673364  .00020177  00000+0  62480-3 0  9991
2 63218  97.3888  51.6166 0003978 138.3190 221.8356 15.33483588 68179
TEVEL2-2                
1 63219U 25052K   26155.65203120  .00020518  00000+0  63618-3 0  9995
2 63219  97.3887  51.6034 0003936 139.0495 221.1044 15.33439815 68174
TEVEL2-9                
1 63237U 25052AD  26156.26677513  .00015357  00000+0  50636-3 0  9995
2 63237  97.3943  51.6191 0006650 165.5205 194.6228 15.31514886 68202
